#cP2023  5 31  0  0  0.00000000      96 ORBIT IGS20 HLM  IGS
## 2264 259200.00000000   900.00000000 60095 0.0000000000000
+   32   G01G02G03G04G05G06G07G08G09G10G11G12G13G14G15G16G17
+        G18G19G20G21G22G23G24G25G26G27G28G29G30G31G32  0  0
+          0  0  0  0  0  0  0  0  0  0  0  0  0  0  0  0  0
+          0  0  0  0  0  0  0  0  0  0  0  0  0  0  0  0  0
+          0  0  0  0  0  0  0  0  0  0  0  0  0  0  0  0  0
++         2  2  2  2  2  2  2  2  1  2  2  2  2  2  2  2  2
++         2  2  2  2  3  2  2  2  2  2  2  2  2  2  2  0  0
++         0  0  0  0  0  0  0  0  0  0  0  0  0  0  0  0  0
++         0  0  0  0  0  0  0  0  0  0  0  0  0  0  0  0  0
++         0  0  0  0  0  0  0  0  0  0  0  0  0  0  0  0  0
%c G  cc GPS ccc cccc cccc cccc cccc ccccc ccccc ccccc ccccc
%c cc cc ccc ccc cccc cccc cccc cccc ccccc ccccc ccccc ccccc
%f  1.2500000  1.025000000  0.00000000000  0.000000000000000
%f  0.0000000  0.000000000  0.00000000000  0.000000000000000
%i    0    0    0    0      0      0      0      0         0
%i    0    0    0    0      0      0      0      0         0
/* RAPID ORBIT COMBINATION FROM WEIGHTED AVERAGE OF:        
/* cod emr esa gfz grg jpl ngs sio usn whu                  
/* REFERENCED TO IGS TIME (IGST) AND TO WEIGHTED MEAN POLE: 
/* PCV:IGS20_2233 OL/AL:FES2014b NONE     Y  ORB:CMB CLK:CMB
*  2023  5 31 14 15  0.00000000
PG01  13186.866413 -12025.450102  19207.460364    181.428465  6  2     67       
PG02  15381.705204   3222.859525  22048.469125   -590.506850  5  3  2  85       
PG03  23034.607545 -13067.620087   -883.052656   -286.243902  6  6  5  88       
PG04  16727.735604  -5518.238121 -19900.141422     55.818294  7  3  5  90       
PG05 -22415.065780   1850.996268 -14395.103087   -129.311659  7  7  7  74       
PG06  -5574.033231 -23937.863796  -9881.507880    586.950305  6  5  5 107       
PG07   6530.349625 -24022.071174  -8067.578116    164.449809  9  4  6 100       
PG08  23598.083293   4076.298577  11828.547891   -125.121576  4  4  2  60       
PG09   6936.954004 -13724.096730 -21725.389253   -146.523927  4  4  5  89       
PG10    614.084981  15970.270433  21332.346015    -39.215713  2  4     89       
PG11 -12843.886656 -12046.128311 -19890.015400   -217.415595  6  6  6  89       
PG12 -24534.062590   9874.763671   1610.141089   -382.813317  6  5  4  79       
PG13 -22468.574790 -12623.791277   6680.343208    527.621339  5  6  4  85       
PG14   2987.923809 -17376.777623  19832.230890     75.265551  6  8  6  63       
PG15 -23773.559066   -980.392392  11607.241755     44.565698  6  5  6  72       
PG16  20921.115929   3475.906870 -16568.748068   -496.034047  2  7  5  83       
PG17  -7996.464053 -19443.327322  16595.902626    716.791846  5  5  4  62       
PG18  -5011.183451  25394.963684  -5572.294612   -288.884391  6  7  4  86       
PG19 -15392.959296 -19747.076937   9084.464646    324.295351  7  4  5  86       
PG20 -16817.330124  -4937.702154 -19865.986575    430.564831  4  6  4  90       
PG21  15345.926627  -1853.048945  22114.316980    153.466197  5  3  3  75       
PG22  17428.439404  19017.606385   7115.413692    490.409900  5  6  7  72       
PG23 -11965.588513  18476.041645  14754.696549     28.894150  5  6  6  83       
PG24 -14643.802221   7639.425932  20365.748845   -208.506332  5  4  5  87       
PG25 -18119.201980  17243.402697  -8839.065639    446.649052  6  7  9 109       
PG26  11508.672279  11307.677047 -21246.761030    239.967162  5  4  2  90       
PG27  23328.435758  13046.541684   1505.223821     26.003917  5  5  3  55       
PG28   5684.610176  24708.355958  -7944.688082     81.455134  5  7  5  99       
PG29 -10284.201372  10903.996641 -21987.345789   -601.310738  4  4  5  99       
PG30   -472.475934 -26342.925828   1988.021131   -513.957130  6  5  4  91       
PG31  11607.499439  16180.082246 -17540.287421   -217.207857  5  4  5  94       
PG32  11682.425189  19068.395189  14662.565769   -489.579431  3  3  5  90       
*  2023  5 31 14 30  0.00000000
PG01  13249.269284  -9683.981149  20457.286557    181.426187  6  2     61       
PG02  15548.555937   5576.709909  21459.636058   -590.503426  4  4  1  87       
PG03  23072.343464 -12844.603716   2015.643457   -286.232628  6  6  6  68       
PG04  18539.186431  -4265.189135 -18569.121625     55.827321  7  3  5  80       
PG05 -21047.613986    779.606865 -16427.741304   -129.312617  7  7  7  70       
PG06  -5399.853781 -24920.798153  -7190.489417    586.949197  6  5  6  89       
PG07   6832.762581 -22877.351790 -10641.073865    164.440767  9  4  6  96       
PG08  24568.297660   4828.242000   9359.208643   -125.123087  4  4  2  73       
PG09   9102.693035 -12541.062517 -21644.337420   -146.516154  5  5  5  97       
PG10  -1455.089738  17090.585354  20367.176819    -39.217620  2  4     77       
PG11 -12627.868416 -14235.991688 -18539.595039   -217.428599  6  6  6  97       
PG12 -24304.121996   9485.475368   4452.927237   -382.817640  6  6  5  71       
PG13 -22831.696480 -13171.060113   3904.810136    527.626287  4  5  4  89       
PG14   4989.137714 -18303.424876  18540.183228     75.276903  7  8  6  66       
PG15 -24826.626209  -1707.406833   9182.959314     44.568870  7  5  6  83       
PG16  19228.277024   4399.670998 -18300.488791   -496.030663  2  7  5  78       
PG17  -6316.677489 -18492.040177  18368.423742    716.793044  5  5  5  61       
PG18  -5217.352264  24595.155073  -8313.975205   -288.898228  6  7  4  79       
PG19 -14313.382884 -19186.727091  11606.560954    324.299817  7  4  5  77       
PG20 -15085.566168  -6517.297909 -20794.983813    430.562678  3  5  4  86       
PG21  15591.222760    546.202656  22088.118654    153.465798  5  3  2  81       
PG22  16562.552387  18679.592729   9745.376201    490.415499  5  7  8  66       
PG23 -13386.236236  19148.126280  12490.505954     28.897214  5  7  5  64       
PG24 -14954.558997   5205.071620  20928.777229   -208.518472  6  4  5  63       
PG25 -18969.926731  17434.368822  -6159.302997    446.651483  7  7  9  89       
PG26   9506.169096  12676.006440 -21434.176181    239.966582  4  4  3  79       
PG27  23258.955500  13243.228033  -1339.313147     25.996864  5  5  3  86       
PG28   5472.255824  25467.750782  -5222.119686     81.456889  5  7  6  92       
PG29 -12320.154405   9493.874609 -21598.388725   -601.311828  4  3  5  87       
PG30   -123.795453 -26396.061710   -830.704942   -513.955051  6  5  5  87       
PG31  11376.953475  18064.982738 -15699.845475   -217.208253  5  4  5  87       
PG32  10070.961665  18354.302577  16641.715178   -489.587383  3  3  5  82       
*  2023  5 31 14 45  0.00000000
PG01  13446.916419  -7227.983104  21341.535790    181.423885  6  1     57       
PG02  15832.632501   7834.265003  20522.387905   -590.499710  4  4  2  91       
PG03  22849.436192 -12441.414666   4879.333680   -286.221356  6  6  6  68       
PG04  20264.881830  -3189.669326 -16919.413521     55.836402  7  3  5  92       
PG05 -19567.934386   -488.761858 -18182.431198   -129.314573  6  7  7  72       
PG06  -5264.296510 -25598.619271  -4374.775575    586.948104  6  6  6  90       
PG07   7209.300873 -21462.199873 -13022.457140    164.432028  8  4  6 103       
PG08  25316.282772   5406.417822   6731.820649   -125.125952  5  5  3  75       
PG09  11299.048738 -11484.065670 -21193.349501   -146.508356  5  5  5  92       
PG10  -3355.582267  18253.101094  19054.200950    -39.219257  2  4  2  80       
PG11 -12525.935855 -16262.934841 -16870.413810   -217.441630  6  6  5  98       
PG12 -23817.908895   8924.755253   7218.231974   -382.821889  5  5  5  91       
PG13 -22962.122363 -13517.776463   1062.694794    527.630782  3  5  4  86       
PG14   6802.865091 -19242.990555  16927.881164     75.288246  8  9  6  79       
PG15 -25643.055852  -2289.397082   6599.967225     44.571846  6  5  6  79       
PG16  17432.444367   5498.729648 -19729.297229   -496.027516  2  7  5  94       
PG17  -4433.549114 -17544.982112  19833.910176    716.794275  6  6  5  60       
PG18  -5479.522119  23504.327193 -10911.290729   -288.912074  7  8  4  90       
PG19 -12970.558971 -18539.100085  13929.837046    324.304651  8  4  5  82       
PG20 -13374.080336  -8238.254308 -21363.906073    430.561055  3  5  4  86       
PG21  15961.358850   2898.495578  21701.754528    153.465502  5  4  2  81       
PG22  15438.902705  18239.356013  12212.086095    490.420932  5  7  8  69       
PG23 -14548.974823  19739.907601  10009.710233     28.900247  6  7  4  64       
PG24 -15384.048203   2748.787432  21118.554333   -208.530569  6  5  6  77       
PG25 -19556.421840  17492.008831  -3372.728779    446.654028  5  7  9 103       
PG26   7568.807829  14141.726457 -21256.675873    239.966011  4  5  4  96       
PG27  22916.057361  13301.805075  -4161.428145     25.989877  5  5  4  86       
PG28   5269.212649  25925.491723  -2409.745641     81.458671  5  7  6  89       
PG29 -14373.884915   8230.850560 -20840.120150   -601.313099  4  3  5  95       
PG30    239.402296 -26146.847095  -3634.876085   -513.952969  6  6  5 106       
PG31  11231.907266  19738.884296 -13587.414996   -217.208993  5  5  5  91       
PG32   8238.691006  17635.734374  18340.336174   -489.595326  3  3  4  96       
EOF
